GSAT0214 (GALILEO 18)
1 41862U 16069D   25333.67432713  .00000051  00000+0  00000+0 0  9996
2 41862  55.3728 106.6081 0001037 291.6100  68.3572  1.70474561 56248